     3.02           N: GNSS NAV DATA    J: QZSS NAV DATA    RINEX VERSION / TYPE
NetR9 5.43          SMO                 20210518 050417 UTC PGM / RUN BY / DATE
QZSA    .1024D-07  -.1490D-07  -.3576D-06   .6557D-06       IONOSPHERIC CORR
QZSB    .1024D+06  -.1638D+05  -.1442D+07   .8323D+07       IONOSPHERIC CORR
QZUT  -.1862645149D-08  .000000000D+00 442368 2158          TIME SYSTEM CORR
    18    18  2185     7                                    LEAP SECONDS
                                                            END OF HEADER
J03 2021 05 18 05 00 00 -.571459531784D-05 -.909494701773D-12  .000000000000D+00
      .209000000000D+03  .592218750000D+03  .179936066488D-08  .300081738832D+01
      .175144523382D-04  .746289560338D-01 -.942870974541D-05  .649365832329D+04
      .190800000000D+06  .270083546638D-06  .232796868252D+01 -.303611159325D-06
      .712522495513D+00  .455593750000D+03 -.155813442118D+01 -.248224625266D-08
      .115361948145D-09  .200000000000D+01  .215800000000D+04  .100000000000D+01
      .280000000000D+01  .000000000000D+00  .000000000000D+00  .977000000000D+03
      .188976000000D+06  .100000000000D+01
J03 2021 05 18 05 00 00 -.571459531784D-05 -.909494701773D-12  .000000000000D+00
      .209000000000D+03  .592218750000D+03  .179936066488D-08  .300081738832D+01
      .175144523382D-04  .746289560338D-01 -.942870974541D-05  .649365832329D+04
      .190800000000D+06  .270083546638D-06  .232796868252D+01 -.303611159325D-06
      .712522495513D+00  .455593750000D+03 -.155813442118D+01 -.248224625266D-08
      .115361948145D-09  .200000000000D+01  .215800000000D+04  .100000000000D+01
      .280000000000D+01  .000000000000D+00  .000000000000D+00  .977000000000D+03
      .189576000000D+06  .100000000000D+01
J03 2021 05 18 05 00 00 -.571459531784D-05 -.909494701773D-12  .000000000000D+00
      .209000000000D+03  .592218750000D+03  .179936066488D-08  .300081738832D+01
      .175144523382D-04  .746289560338D-01 -.942870974541D-05  .649365832329D+04
      .190800000000D+06  .270083546638D-06  .232796868252D+01 -.303611159325D-06
      .712522495513D+00  .455593750000D+03 -.155813442118D+01 -.248224625266D-08
      .115361948145D-09  .200000000000D+01  .215800000000D+04  .100000000000D+01
      .280000000000D+01  .000000000000D+00  .000000000000D+00  .977000000000D+03
      .190176000000D+06  .100000000000D+01
J07 2021 05 18 04 00 00 -.325962901115D-08  .000000000000D+00  .000000000000D+00
      .205000000000D+03  .323437500000D+03  .000000000000D+00  .480988033985D+00
      .106878578663D-04  .962051562965D-04  .377930700779D-05  .649333350182D+04
      .187200000000D+06 -.388547778130D-05 -.122178825613D+01  .845640897751D-06
      .763950450174D-03 -.120875000000D+03 -.224127361605D+01  .106361573244D-08
      .000000000000D+00  .200000000000D+01  .215800000000D+04  .100000000000D+01
      .280000000000D+01  .000000000000D+00 -.605359673500D-08  .973000000000D+03
      .187176000000D+06  .100000000000D+01
J07 2021 05 18 05 00 00 -.372529029846D-08  .000000000000D+00  .000000000000D+00
      .209000000000D+03  .326656250000D+03  .000000000000D+00  .719435016042D+00
      .107921659946D-04  .996969174594D-04  .534951686859D-05  .649334372139D+04
      .190800000000D+06 -.433251261711D-05 -.122977106947D+01 -.230595469475D-05
      .763495482651D-03 -.170218750000D+03 -.220921113748D+01  .999684498015D-09
      .000000000000D+00  .200000000000D+01  .215800000000D+04  .100000000000D+01
      .280000000000D+01  .000000000000D+00 -.605359673500D-08  .977000000000D+03
      .187206000000D+06  .100000000000D+01
J07 2021 05 18 05 00 00 -.372529029846D-08  .000000000000D+00  .000000000000D+00
      .209000000000D+03  .326656250000D+03  .000000000000D+00  .719435016042D+00
      .107921659946D-04  .996969174594D-04  .534951686859D-05  .649334372139D+04
      .190800000000D+06 -.433251261711D-05 -.122977106947D+01 -.230595469475D-05
      .763495482651D-03 -.170218750000D+03 -.220921113748D+01  .999684498015D-09
      .000000000000D+00  .200000000000D+01  .215800000000D+04  .100000000000D+01
      .280000000000D+01  .000000000000D+00 -.605359673500D-08  .977000000000D+03
      .187776000000D+06  .100000000000D+01
J07 2021 05 18 05 00 00 -.372529029846D-08  .000000000000D+00  .000000000000D+00
      .209000000000D+03  .326656250000D+03  .000000000000D+00  .719435016042D+00
      .107921659946D-04  .996969174594D-04  .534951686859D-05  .649334372139D+04
      .190800000000D+06 -.433251261711D-05 -.122977106947D+01 -.230595469475D-05
      .763495482651D-03 -.170218750000D+03 -.220921113748D+01  .999684498015D-09
      .000000000000D+00  .200000000000D+01  .215800000000D+04  .100000000000D+01
      .280000000000D+01  .000000000000D+00 -.605359673500D-08  .977000000000D+03
      .188376000000D+06  .100000000000D+01
J07 2021 05 18 05 00 00 -.372529029846D-08  .000000000000D+00  .000000000000D+00
      .209000000000D+03  .326656250000D+03  .000000000000D+00  .719435016042D+00
      .107921659946D-04  .996969174594D-04  .534951686859D-05  .649334372139D+04
      .190800000000D+06 -.433251261711D-05 -.122977106947D+01 -.230595469475D-05
      .763495482651D-03 -.170218750000D+03 -.220921113748D+01  .999684498015D-09
      .000000000000D+00  .200000000000D+01  .215800000000D+04  .100000000000D+01
      .280000000000D+01  .000000000000D+00 -.605359673500D-08  .977000000000D+03
      .188976000000D+06  .100000000000D+01
J07 2021 05 18 05 00 00 -.372529029846D-08  .000000000000D+00  .000000000000D+00
      .209000000000D+03  .326656250000D+03  .000000000000D+00  .719435016042D+00
      .107921659946D-04  .996969174594D-04  .534951686859D-05  .649334372139D+04
      .190800000000D+06 -.433251261711D-05 -.122977106947D+01 -.230595469475D-05
      .763495482651D-03 -.170218750000D+03 -.220921113748D+01  .999684498015D-09
      .000000000000D+00  .200000000000D+01  .215800000000D+04  .100000000000D+01
      .280000000000D+01  .000000000000D+00 -.605359673500D-08  .977000000000D+03
      .189576000000D+06  .100000000000D+01
J07 2021 05 18 05 00 00 -.372529029846D-08  .000000000000D+00  .000000000000D+00
      .209000000000D+03  .326656250000D+03  .000000000000D+00  .719435016042D+00
      .107921659946D-04  .996969174594D-04  .534951686859D-05  .649334372139D+04
      .190800000000D+06 -.433251261711D-05 -.122977106947D+01 -.230595469475D-05
      .763495482651D-03 -.170218750000D+03 -.220921113748D+01  .999684498015D-09
      .000000000000D+00  .200000000000D+01  .215800000000D+04  .100000000000D+01
      .280000000000D+01  .000000000000D+00 -.605359673500D-08  .977000000000D+03
      .190176000000D+06  .100000000000D+01
